<?xml version="1.0" encoding="UTF-8"?>
<ndm xmlns:xsi="http://www.w3.org/2001/XMLSchema-instance" xsi:noNamespaceSchemaLocation="https://sanaregistry.org/r/ndmxml_unqualified/ndmxml-2.0.0-master-2.0.xsd">
<omm id="CCSDS_OMM_VERS" version="2.0">
<header><CREATION_DATE/><ORIGINATOR/></header><body><segment><metadata><OBJECT_NAME>KUIPER-00079</OBJECT_NAME><OBJECT_ID>2025-151L</OBJECT_ID><CENTER_NAME>EARTH</CENTER_NAME><REF_FRAME>TEME</REF_FRAME><TIME_SYSTEM>UTC</TIME_SYSTEM><MEAN_ELEMENT_THEORY>SGP4</MEAN_ELEMENT_THEORY></metadata><data><meanElements><EPOCH>2026-01-27T15:13:16.078368</EPOCH><MEAN_MOTION>14.79906751</MEAN_MOTION><ECCENTRICITY>.0001094</ECCENTRICITY><INCLINATION>51.8982</INCLINATION><RA_OF_ASC_NODE>122.1119</RA_OF_ASC_NODE><ARG_OF_PERICENTER>118.7899</ARG_OF_PERICENTER><MEAN_ANOMALY>241.3173</MEAN_ANOMALY></meanElements><tleParameters><EPHEMERIS_TYPE>0</EPHEMERIS_TYPE><CLASSIFICATION_TYPE>U</CLASSIFICATION_TYPE><NORAD_CAT_ID>64826</NORAD_CAT_ID><ELEMENT_SET_NO>999</ELEMENT_SET_NO><REV_AT_EPOCH>3042</REV_AT_EPOCH><BSTAR>.76605E-3</BSTAR><MEAN_MOTION_DOT>.562E-4</MEAN_MOTION_DOT><MEAN_MOTION_DDOT>0</MEAN_MOTION_DDOT></tleParameters></data></segment></body></omm>
<omm id="CCSDS_OMM_VERS" version="2.0">
<header><CREATION_DATE/><ORIGINATOR/></header><body><segment><metadata><OBJECT_NAME>KUIPER-00080</OBJECT_NAME><OBJECT_ID>2025-151M</OBJECT_ID><CENTER_NAME>EARTH</CENTER_NAME><REF_FRAME>TEME</REF_FRAME><TIME_SYSTEM>UTC</TIME_SYSTEM><MEAN_ELEMENT_THEORY>SGP4</MEAN_ELEMENT_THEORY></metadata><data><meanElements><EPOCH>2026-01-27T16:02:07.054944</EPOCH><MEAN_MOTION>14.79930863</MEAN_MOTION><ECCENTRICITY>.0001318</ECCENTRICITY><INCLINATION>51.9006</INCLINATION><RA_OF_ASC_NODE>121.9677</RA_OF_ASC_NODE><ARG_OF_PERICENTER>153.8688</ARG_OF_PERICENTER><MEAN_ANOMALY>206.2341</MEAN_ANOMALY></meanElements><tleParameters><EPHEMERIS_TYPE>0</EPHEMERIS_TYPE><CLASSIFICATION_TYPE>U</CLASSIFICATION_TYPE><NORAD_CAT_ID>64827</NORAD_CAT_ID><ELEMENT_SET_NO>999</ELEMENT_SET_NO><REV_AT_EPOCH>2923</REV_AT_EPOCH><BSTAR>.27116E-3</BSTAR><MEAN_MOTION_DOT>.1846E-4</MEAN_MOTION_DOT><MEAN_MOTION_DDOT>0</MEAN_MOTION_DDOT></tleParameters></data></segment></body></omm>
<omm id="CCSDS_OMM_VERS" version="2.0">
<header><CREATION_DATE/><ORIGINATOR/></header><body><segment><metadata><OBJECT_NAME>KUIPER-00082</OBJECT_NAME><OBJECT_ID>2025-151N</OBJECT_ID><CENTER_NAME>EARTH</CENTER_NAME><REF_FRAME>TEME</REF_FRAME><TIME_SYSTEM>UTC</TIME_SYSTEM><MEAN_ELEMENT_THEORY>SGP4</MEAN_ELEMENT_THEORY></metadata><data><meanElements><EPOCH>2026-01-27T15:32:53.999808</EPOCH><MEAN_MOTION>14.79917819</MEAN_MOTION><ECCENTRICITY>.0000461</ECCENTRICITY><INCLINATION>51.9009</INCLINATION><RA_OF_ASC_NODE>109.5833</RA_OF_ASC_NODE><ARG_OF_PERICENTER>65.2064</ARG_OF_PERICENTER><MEAN_ANOMALY>294.8946</MEAN_ANOMALY></meanElements><tleParameters><EPHEMERIS_TYPE>0</EPHEMERIS_TYPE><CLASSIFICATION_TYPE>U</CLASSIFICATION_TYPE><NORAD_CAT_ID>64828</NORAD_CAT_ID><ELEMENT_SET_NO>999</ELEMENT_SET_NO><REV_AT_EPOCH>2940</REV_AT_EPOCH><BSTAR>.28955E-3</BSTAR><MEAN_MOTION_DOT>.1986E-4</MEAN_MOTION_DOT><MEAN_MOTION_DDOT>0</MEAN_MOTION_DDOT></tleParameters></data></segment></body></omm>
<omm id="CCSDS_OMM_VERS" version="2.0">
<header><CREATION_DATE/><ORIGINATOR/></header><body><segment><metadata><OBJECT_NAME>KUIPER-00083</OBJECT_NAME><OBJECT_ID>2025-151P</OBJECT_ID><CENTER_NAME>EARTH</CENTER_NAME><REF_FRAME>TEME</REF_FRAME><TIME_SYSTEM>UTC</TIME_SYSTEM><MEAN_ELEMENT_THEORY>SGP4</MEAN_ELEMENT_THEORY></metadata><data><meanElements><EPOCH>2026-01-27T10:29:30.793344</EPOCH><MEAN_MOTION>14.79928712</MEAN_MOTION><ECCENTRICITY>.00019772</ECCENTRICITY><INCLINATION>51.9028</INCLINATION><RA_OF_ASC_NODE>118.0073</RA_OF_ASC_NODE><ARG_OF_PERICENTER>150.5493</ARG_OF_PERICENTER><MEAN_ANOMALY>209.5581</MEAN_ANOMALY></meanElements><tleParameters><EPHEMERIS_TYPE>0</EPHEMERIS_TYPE><CLASSIFICATION_TYPE>U</CLASSIFICATION_TYPE><NORAD_CAT_ID>64829</NORAD_CAT_ID><ELEMENT_SET_NO>999</ELEMENT_SET_NO><REV_AT_EPOCH>3045</REV_AT_EPOCH><BSTAR>.12764878E-2</BSTAR><MEAN_MOTION_DOT>.9523E-4</MEAN_MOTION_DOT><MEAN_MOTION_DDOT>0</MEAN_MOTION_DDOT></tleParameters></data></segment></body></omm>
<omm id="CCSDS_OMM_VERS" version="2.0">
<header><CREATION_DATE/><ORIGINATOR/></header><body><segment><metadata><OBJECT_NAME>KUIPER-00084</OBJECT_NAME><OBJECT_ID>2025-151Q</OBJECT_ID><CENTER_NAME>EARTH</CENTER_NAME><REF_FRAME>TEME</REF_FRAME><TIME_SYSTEM>UTC</TIME_SYSTEM><MEAN_ELEMENT_THEORY>SGP4</MEAN_ELEMENT_THEORY></metadata><data><meanElements><EPOCH>2026-01-27T16:42:58.068288</EPOCH><MEAN_MOTION>14.79901032</MEAN_MOTION><ECCENTRICITY>.0008336</ECCENTRICITY><INCLINATION>51.8997</INCLINATION><RA_OF_ASC_NODE>126.8432</RA_OF_ASC_NODE><ARG_OF_PERICENTER>85.6168</ARG_OF_PERICENTER><MEAN_ANOMALY>274.5747</MEAN_ANOMALY></meanElements><tleParameters><EPHEMERIS_TYPE>0</EPHEMERIS_TYPE><CLASSIFICATION_TYPE>U</CLASSIFICATION_TYPE><NORAD_CAT_ID>64830</NORAD_CAT_ID><ELEMENT_SET_NO>999</ELEMENT_SET_NO><REV_AT_EPOCH>2916</REV_AT_EPOCH><BSTAR>.11311E-2</BSTAR><MEAN_MOTION_DOT>.8409E-4</MEAN_MOTION_DOT><MEAN_MOTION_DDOT>0</MEAN_MOTION_DDOT></tleParameters></data></segment></body></omm>
<omm id="CCSDS_OMM_VERS" version="2.0">
<header><CREATION_DATE/><ORIGINATOR/></header><body><segment><metadata><OBJECT_NAME>KUIPER-00085</OBJECT_NAME><OBJECT_ID>2025-151R</OBJECT_ID><CENTER_NAME>EARTH</CENTER_NAME><REF_FRAME>TEME</REF_FRAME><TIME_SYSTEM>UTC</TIME_SYSTEM><MEAN_ELEMENT_THEORY>SGP4</MEAN_ELEMENT_THEORY></metadata><data><meanElements><EPOCH>2026-01-27T14:44:16.470528</EPOCH><MEAN_MOTION>14.79923336</MEAN_MOTION><ECCENTRICITY>.0000148</ECCENTRICITY><INCLINATION>51.9030</INCLINATION><RA_OF_ASC_NODE>109.7586</RA_OF_ASC_NODE><ARG_OF_PERICENTER>123.9327</ARG_OF_PERICENTER><MEAN_ANOMALY>236.1649</MEAN_ANOMALY></meanElements><tleParameters><EPHEMERIS_TYPE>0</EPHEMERIS_TYPE><CLASSIFICATION_TYPE>U</CLASSIFICATION_TYPE><NORAD_CAT_ID>64831</NORAD_CAT_ID><ELEMENT_SET_NO>999</ELEMENT_SET_NO><REV_AT_EPOCH>2939</REV_AT_EPOCH><BSTAR>.55498E-3</BSTAR><MEAN_MOTION_DOT>.4011E-4</MEAN_MOTION_DOT><MEAN_MOTION_DDOT>0</MEAN_MOTION_DDOT></tleParameters></data></segment></body></omm>
<omm id="CCSDS_OMM_VERS" version="2.0">
<header><CREATION_DATE/><ORIGINATOR/></header><body><segment><metadata><OBJECT_NAME>KUIPER-00086</OBJECT_NAME><OBJECT_ID>2025-151S</OBJECT_ID><CENTER_NAME>EARTH</CENTER_NAME><REF_FRAME>TEME</REF_FRAME><TIME_SYSTEM>UTC</TIME_SYSTEM><MEAN_ELEMENT_THEORY>SGP4</MEAN_ELEMENT_THEORY></metadata><data><meanElements><EPOCH>2026-01-27T11:14:12.566400</EPOCH><MEAN_MOTION>14.79900668</MEAN_MOTION><ECCENTRICITY>.00021636</ECCENTRICITY><INCLINATION>51.9001</INCLINATION><RA_OF_ASC_NODE>120.3756</RA_OF_ASC_NODE><ARG_OF_PERICENTER>120.3220</ARG_OF_PERICENTER><MEAN_ANOMALY>239.7957</MEAN_ANOMALY></meanElements><tleParameters><EPHEMERIS_TYPE>0</EPHEMERIS_TYPE><CLASSIFICATION_TYPE>U</CLASSIFICATION_TYPE><NORAD_CAT_ID>64832</NORAD_CAT_ID><ELEMENT_SET_NO>999</ELEMENT_SET_NO><REV_AT_EPOCH>2923</REV_AT_EPOCH><BSTAR>.1148493E-2</BSTAR><MEAN_MOTION_DOT>.8538E-4</MEAN_MOTION_DOT><MEAN_MOTION_DDOT>0</MEAN_MOTION_DDOT></tleParameters></data></segment></body></omm>
<omm id="CCSDS_OMM_VERS" version="2.0">
<header><CREATION_DATE/><ORIGINATOR/></header><body><segment><metadata><OBJECT_NAME>KUIPER-00087</OBJECT_NAME><OBJECT_ID>2025-151T</OBJECT_ID><CENTER_NAME>EARTH</CENTER_NAME><REF_FRAME>TEME</REF_FRAME><TIME_SYSTEM>UTC</TIME_SYSTEM><MEAN_ELEMENT_THEORY>SGP4</MEAN_ELEMENT_THEORY></metadata><data><meanElements><EPOCH>2026-01-27T14:55:28.502688</EPOCH><MEAN_MOTION>14.80025441</MEAN_MOTION><ECCENTRICITY>.0000797</ECCENTRICITY><INCLINATION>51.8992</INCLINATION><RA_OF_ASC_NODE>102.1804</RA_OF_ASC_NODE><ARG_OF_PERICENTER>63.8881</ARG_OF_PERICENTER><MEAN_ANOMALY>296.2164</MEAN_ANOMALY></meanElements><tleParameters><EPHEMERIS_TYPE>0</EPHEMERIS_TYPE><CLASSIFICATION_TYPE>U</CLASSIFICATION_TYPE><NORAD_CAT_ID>64833</NORAD_CAT_ID><ELEMENT_SET_NO>999</ELEMENT_SET_NO><REV_AT_EPOCH>2949</REV_AT_EPOCH><BSTAR>.8023E-3</BSTAR><MEAN_MOTION_DOT>.5914E-4</MEAN_MOTION_DOT><MEAN_MOTION_DDOT>0</MEAN_MOTION_DDOT></tleParameters></data></segment></body></omm>

</ndm>
