KUIPER-00079            
1 64826U 25151L   26027.63421387  .00005620  00000+0  76605-3 0  9990
2 64826  51.8982 122.1119 0001094 118.7899 241.3173 14.79906751 30424
KUIPER-00080            
1 64827U 25151M   26027.66813722  .00001846  00000+0  27116-3 0  9991
2 64827  51.9006 121.9677 0001317 153.8688 206.2341 14.79930863 29238
KUIPER-00082            
1 64828U 25151N   26027.64784723  .00001986  00000+0  28955-3 0  9995
2 64828  51.9009 109.5833 0000461  65.2064 294.8946 14.79917819 29400
KUIPER-00083            
1 64829U 25151P   26027.43716196  .00009523  00000+0  12765-2 0  9998
2 64829  51.9028 118.0073 0001977 150.5493 209.5581 14.79928712 30459
KUIPER-00084            
1 64830U 25151Q   26027.69650542  .00008409  00000+0  11311-2 0  9998
2 64830  51.8997 126.8432 0008336  85.6168 274.5747 14.79901032 29162
KUIPER-00085            
1 64831U 25151R   26027.61407952  .00004011  00000+0  55498-3 0  9996
2 64831  51.9030 109.7586 0000148 123.9327 236.1649 14.79923336 29399
KUIPER-00086            
1 64832U 25151S   26027.46820100  .00008538  00000+0  11485-2 0  9999
2 64832  51.9001 120.3756 0002163 120.3220 239.7957 14.79900668 29235
KUIPER-00087            
1 64833U 25151T   26027.62185767  .00005914  00000+0  80230-3 0  9991
2 64833  51.8992 102.1804 0000797  63.8881 296.2164 14.80025441 29496
